OBJECT_NAME,OBJECT_ID,EPOCH,MEAN_MOTION,ECCENTRICITY,INCLINATION,RA_OF_ASC_NODE,ARG_OF_PERICENTER,MEAN_ANOMALY,EPHEMERIS_TYPE,CLASSIFICATION_TYPE,NORAD_CAT_ID,ELEMENT_SET_NO,REV_AT_EPOCH,BSTAR,MEAN_MOTION_DOT,MEAN_MOTION_DDOT
STARLINK-37975,2026-147D,2026-07-14T14:19:56.811648,15.80791534,.0001655,97.2843,231.9554,123.4228,236.7199,0,U,69707,999,376,.78723545E-3,.153158E-2,0
STARLINK-37972,2026-147E,2026-07-14T14:18:51.965856,15.80797915,.00016749,97.2846,231.9565,122.1438,237.9993,0,U,69708,999,376,.85656873E-3,.166973E-2,0
STARLINK-37963,2026-147F,2026-07-14T14:17:46.838400,15.80807005,.00013866,97.2839,231.9567,132.3596,227.7790,0,U,69709,999,376,.86980272E-3,.169676E-2,0
STARLINK-37969,2026-147G,2026-07-14T14:16:41.938176,15.80805529,.00014954,97.2843,231.9594,148.4142,211.7216,0,U,69710,999,376,.67192704E-3,.130444E-2,0
STARLINK-37956,2026-147H,2026-07-14T14:15:37.539936,15.80871973,.00022858,97.2842,231.9601,112.4011,247.7500,0,U,69711,999,376,.36780823E-3,.71075E-3,0
STARLINK-38043,2026-147J,2026-07-14T14:14:32.028864,15.80850678,.00016404,97.2836,231.9599,157.1182,203.0160,0,U,69712,999,376,.10267517E-3,.19601E-3,0
STARLINK-38020,2026-147K,2026-07-14T14:13:27.547680,15.80944116,.00011982,97.2831,231.9627,100.7979,259.3424,0,U,69713,999,376,.12348005E-2,.244557E-2,0
STARLINK-38059,2026-147L,2026-07-14T12:41:12.926976,15.80939885,.00002202,97.2835,231.8942,337.7804,22.3455,0,U,69714,999,375,.11418634E-2,.225609E-2,0
STARLINK-38061,2026-147M,2026-07-14T14:11:17.516544,15.80794383,.00014342,97.2835,231.9633,54.4331,305.7070,0,U,69715,999,376,.6549759E-3,.127034E-2,0
STARLINK-38060,2026-147N,2026-07-14T14:10:12.417600,15.80804523,.00009256,97.2838,231.9653,99.1115,261.0258,0,U,69716,999,376,.75421687E-3,.146702E-2,0
STARLINK-38040,2026-147P,2026-07-14T14:09:07.334208,15.80797848,.00004222,97.2824,231.9658,103.2986,256.8330,0,U,69717,999,376,.7704936E-3,.149881E-2,0
STARLINK-37989,2026-147Q,2026-07-14T14:08:02.968800,15.80917169,.00013704,97.2821,231.9660,84.7750,275.3675,0,U,69718,999,376,.1135526E-2,.224076E-2,0
STARLINK-38039,2026-147R,2026-07-14T14:06:57.862944,15.80813276,.00016893,97.2849,231.9673,92.0878,268.0584,0,U,69719,999,376,.88466614E-3,.17269E-2,0
STARLINK-38003,2026-147S,2026-07-14T14:05:52.541952,15.80793531,.000145,97.2826,231.9679,136.6356,223.5027,0,U,69720,999,376,.7085387E-3,.137597E-2,0
STARLINK-38014,2026-147T,2026-07-14T14:04:48.046080,15.80802203,.00015847,97.2837,231.9685,68.2430,291.9007,0,U,69721,999,376,.78971593E-3,.153725E-2,0
STARLINK-37915,2026-147U,2026-07-14T14:03:42.763968,15.80804655,.00011509,97.2823,231.9701,120.2197,239.9185,0,U,69722,999,376,.88353949E-3,.172393E-2,0
STARLINK-38007,2026-147V,2026-07-14T14:07:09.665184,15.80794372,.00011762,97.2836,231.9662,105.7115,254.4283,0,U,69723,999,376,.66207195E-3,.128431E-2,0
STARLINK-38008,2026-147W,2026-07-14T14:01:32.986848,15.80786090,.00012407,97.2837,231.9722,98.9105,261.2304,0,U,69724,999,376,.71457461E-3,.13874E-2,0
STARLINK-38021,2026-147X,2026-07-14T14:00:28.317312,15.80955311,.00010132,97.2834,231.9738,34.6478,325.4856,0,U,69725,999,376,.13338466E-2,.264946E-2,0
STARLINK-38015,2026-147Y,2026-07-14T13:59:23.580384,15.80965889,.00009542,97.2833,231.9744,103.4217,256.7158,0,U,69726,999,376,.15164846E-2,.302713E-2,0
STARLINK-38010,2026-147Z,2026-07-14T12:57:35.138592,15.75219609,.00010139,97.2839,231.8791,80.4375,279.7004,0,U,69727,999,375,.57038702E-3,.85916E-3,0
SXM-11,2026-148A,2026-07-14T12:50:40.154208,1.00269147,.00019182,0.1141,265.3945,176.5843,282.5876,0,U,69728,999,31,0,.3E-7,0
HAIYANG-2E,2026-149A,2026-07-13T15:15:28.816416,13.79314717,.0001579,99.3454,201.5813,93.5996,266.5337,0,U,69737,999,161,-.45287E-4,-.91E-6,0
STARLINK-38033,2026-150A,2026-07-14T12:21:22.855968,15.80884762,.0001135,97.2826,33.8365,95.9585,264.1812,0,U,69739,999,321,.62859443E-3,.122348E-2,0
STARLINK-38076,2026-150B,2026-07-14T14:00:01.999872,15.75250602,.00012079,97.2832,33.8706,78.3665,217.9165,0,U,69740,999,320,-.11409294E-2,-.167453E-2,0
STARLINK-38074,2026-150C,2026-07-14T12:17:40.220448,15.80920264,.00012353,97.2827,33.8404,93.6695,266.4715,0,U,69741,999,321,.96265972E-3,.189204E-2,0
STARLINK-38041,2026-150D,2026-07-14T12:16:40.240704,15.80925154,.00013947,97.2822,33.8415,105.4157,254.7266,0,U,69742,999,321,.10042928E-2,.19763E-2,0
STARLINK-38087,2026-150E,2026-07-14T12:15:29.672640,15.80954886,.00011929,97.2822,33.8425,92.4276,267.7129,0,U,69743,999,321,.13122524E-2,.260515E-2,0
STARLINK-38078,2026-150F,2026-07-14T12:14:24.507168,15.80869178,.00012196,97.2827,33.8434,109.6009,250.5391,0,U,69744,999,321,.65749836E-3,.127973E-2,0
