STARLINK-37975          
1 69707U 26147D   26195.59718532  .00153158  00000+0  78724-3 0  9995
2 69707  97.2843 231.9554 0001655 123.4228 236.7199 15.80791534  3768
STARLINK-37972          
1 69708U 26147E   26195.59643479  .00166973  00000+0  85657-3 0  9995
2 69708  97.2846 231.9565 0001674 122.1438 237.9993 15.80797915  3768
STARLINK-37963          
1 69709U 26147F   26195.59568100  .00169676  00000+0  86980-3 0  9996
2 69709  97.2839 231.9567 0001386 132.3596 227.7790 15.80807005  3765
STARLINK-37969          
1 69710U 26147G   26195.59492984  .00130444  00000+0  67193-3 0  9990
2 69710  97.2843 231.9594 0001495 148.4142 211.7216 15.80805529  3763
STARLINK-37956          
1 69711U 26147H   26195.59418449  .00071075  00000+0  36781-3 0  9998
2 69711  97.2842 231.9601 0002285 112.4011 247.7500 15.80871973  3767
STARLINK-38043          
1 69712U 26147J   26195.59342626  .00019601  00000+0  10268-3 0  9991
2 69712  97.2836 231.9599 0001640 157.1182 203.0160 15.80850678  3762
STARLINK-38020          
1 69713U 26147K   26195.59267995  .00244557  00000+0  12348-2 0  9997
2 69713  97.2831 231.9627 0001198 100.7979 259.3424 15.80944116  3764
STARLINK-38059          
1 69714U 26147L   26195.52862184  .00225609  00000+0  11419-2 0  9997
2 69714  97.2835 231.8942 0000220 337.7804  22.3455 15.80939885  3750
STARLINK-38061          
1 69715U 26147M   26195.59117496  .00127034  00000+0  65498-3 0  9994
2 69715  97.2835 231.9633 0001434  54.4331 305.7070 15.80794383  3769
STARLINK-38060          
1 69716U 26147N   26195.59042150  .00146702  00000+0  75422-3 0  9990
2 69716  97.2838 231.9653 0000925  99.1115 261.0258 15.80804523  3765
STARLINK-38040          
1 69717U 26147P   26195.58966822  .00149881  00000+0  77049-3 0  9999
2 69717  97.2824 231.9658 0000422 103.2986 256.8330 15.80797848  3765
STARLINK-37989          
1 69718U 26147Q   26195.58892325  .00224076  00000+0  11355-2 0  9993
2 69718  97.2821 231.9660 0001370  84.7750 275.3675 15.80917169  3769
STARLINK-38039          
1 69719U 26147R   26195.58816971  .00172690  00000+0  88467-3 0  9990
2 69719  97.2849 231.9673 0001689  92.0878 268.0584 15.80813276  3762
STARLINK-38003          
1 69720U 26147S   26195.58741368  .00137597  00000+0  70854-3 0  9997
2 69720  97.2826 231.9679 0001450 136.6356 223.5027 15.80793531  3766
STARLINK-38014          
1 69721U 26147T   26195.58666720  .00153725  00000+0  78972-3 0  9996
2 69721  97.2837 231.9685 0001584  68.2430 291.9007 15.80802203  3761
STARLINK-37915          
1 69722U 26147U   26195.58591162  .00172393  00000+0  88354-3 0  9991
2 69722  97.2823 231.9701 0001150 120.2197 239.9185 15.80804655  3766
STARLINK-38007          
1 69723U 26147V   26195.58830631  .00128431  00000+0  66207-3 0  9996
2 69723  97.2836 231.9662 0001176 105.7115 254.4283 15.80794372  3768
STARLINK-38008          
1 69724U 26147W   26195.58440957  .00138740  00000+0  71457-3 0  9992
2 69724  97.2837 231.9722 0001240  98.9105 261.2304 15.80786090  3769
STARLINK-38021          
1 69725U 26147X   26195.58366108  .00264946  00000+0  13338-2 0  9999
2 69725  97.2834 231.9738 0001013  34.6478 325.4856 15.80955311  3761
STARLINK-38015          
1 69726U 26147Y   26195.58291181  .00302713  00000+0  15165-2 0  9993
2 69726  97.2833 231.9744 0000954 103.4217 256.7158 15.80965889  3769
STARLINK-38010          
1 69727U 26147Z   26195.53999003  .00085916  00000+0  57039-3 0  9997
2 69727  97.2839 231.8791 0001013  80.4375 279.7004 15.75219609  3753
SXM-11                  
1 69728U 26148A   26195.53518697  .00000003  00000+0  00000+0 0  9991
2 69728   0.1141 265.3945 0001918 176.5843 282.5876  1.00269147   310
HAIYANG-2E              
1 69737U 26149A   26194.63575019 -.00000091  00000+0 -45287-4 0  9993
2 69737  99.3454 201.5813 0001579  93.5996 266.5337 13.79314717  1614
STARLINK-38033          
1 69739U 26150A   26195.51484787  .00122348  00000+0  62859-3 0  9997
2 69739  97.2826  33.8365 0001135  95.9585 264.1812 15.80884762  3218
STARLINK-38076          
1 69740U 26150B   26195.58335648 -.00167453  00000+0 -11409-2 0  9999
2 69740  97.2832  33.8706 0001207  78.3665 217.9165 15.75250602  3200
STARLINK-38074          
1 69741U 26150C   26195.51227107  .00189204  00000+0  96266-3 0  9994
2 69741  97.2827  33.8404 0001235  93.6695 266.4715 15.80920264  3219
STARLINK-38041          
1 69742U 26150D   26195.51157686  .00197630  00000+0  10043-2 0  9999
2 69742  97.2822  33.8415 0001394 105.4157 254.7266 15.80925154  3212
STARLINK-38087          
1 69743U 26150E   26195.51076010  .00260515  00000+0  13123-2 0  9996
2 69743  97.2822  33.8425 0001192  92.4276 267.7129 15.80954886  3213
STARLINK-38078          
1 69744U 26150F   26195.51000587  .00127973  00000+0  65750-3 0  9997
2 69744  97.2827  33.8434 0001219 109.6009 250.5391 15.80869178  3214
